OBJECT_NAME,OBJECT_ID,EPOCH,MEAN_MOTION,ECCENTRICITY,INCLINATION,RA_OF_ASC_NODE,ARG_OF_PERICENTER,MEAN_ANOMALY,EPHEMERIS_TYPE,CLASSIFICATION_TYPE,NORAD_CAT_ID,ELEMENT_SET_NO,REV_AT_EPOCH,BSTAR,MEAN_MOTION_DOT,MEAN_MOTION_DDOT
STARLINK-4002,2022-052Q,2026-06-14T19:33:59.805792,15.08830883,.0001275,53.1591,203.0260,87.4818,272.6319,0,U,52612,999,22552,.20862E-4,.44E-6,0
STARLINK-3982,2022-052S,2026-06-14T04:38:41.111232,15.53811570,.00012832,53.2065,128.0386,2.2647,357.8371,0,U,52614,999,22652,.13183915E-2,.86619E-3,0
STARLINK-4011,2022-052T,2026-06-14T20:23:40.255008,15.08834877,.0001217,53.1592,207.8701,87.6493,272.4638,0,U,52615,999,22544,.20966E-4,.46E-6,0
STARLINK-3996,2022-052V,2026-06-14T09:20:36.865248,15.08829122,.00012333,53.1581,194.9389,74.5687,285.5440,0,U,52617,999,22558,-.3055376E-5,-.337E-5,0
STARLINK-3983,2022-052W,2026-06-14T18:58:13.355040,15.08832799,.0001112,53.1584,193.1373,82.4408,277.6709,0,U,52618,999,22564,.54314E-4,.576E-5,0
STARLINK-3741,2022-052X,2026-06-14T18:47:36.502368,15.08839993,.000112,53.1582,193.1596,81.2218,278.8900,0,U,52619,999,22564,.91789E-4,.1173E-4,0
STARLINK-3975,2022-052Y,2026-06-14T20:18:22.404960,15.08839176,.0001201,53.1591,207.8860,76.3571,283.7554,0,U,52620,999,22544,-.1977E-4,-.603E-5,0
STARLINK-3984,2022-052Z,2026-06-14T09:04:43.607136,15.08838223,.00014647,53.1593,194.9899,74.3029,285.8124,0,U,52621,999,22558,.67502489E-4,.786E-5,0
STARLINK-4008,2022-052AA,2026-06-14T19:25:22.700928,15.08831435,.0001181,53.1594,208.0517,82.6276,277.4850,0,U,52622,999,22544,.14104E-5,-.265E-5,0
STARLINK-3986,2022-052AB,2026-06-14T18:31:43.483584,15.08831508,.0001215,53.1599,193.2194,80.5682,279.5446,0,U,52623,999,22564,-.34742E-5,-.343E-5,0
STARLINK-3988,2022-052AD,2026-06-14T18:26:25.463328,15.08831420,.0001237,53.1598,193.2351,85.9210,274.1923,0,U,52625,999,22564,.10637E-4,-.119E-5,0
STARLINK-3990,2022-052AE,2026-06-14T18:42:19.588896,15.08830999,.0001175,53.1595,193.1865,79.9185,280.1939,0,U,52626,999,22564,.3526E-5,-.232E-5,0
STARLINK-3992,2022-052AF,2026-06-14T08:38:12.496704,15.08836312,.00012604,53.1603,195.0717,85.9317,274.1818,0,U,52627,999,22559,.21304078E-4,.51E-6,0
STARLINK-4001,2022-052AG,2026-06-14T19:20:04.708320,15.08832357,.0001246,53.1598,208.0687,85.1959,274.9175,0,U,52628,999,22544,.32389E-4,.227E-5,0
STARLINK-4022,2022-052AH,2026-06-14T08:27:36.480384,15.08833716,.00012325,53.1604,195.0659,84.2556,275.8576,0,U,52629,999,22558,-.929416E-6,-.303E-5,0
STARLINK-3989,2022-052AJ,2026-06-14T18:21:07.831008,15.08830138,.0001131,53.1594,193.2529,83.1763,276.9357,0,U,52630,999,22564,.21242E-5,-.254E-5,0
STARLINK-3794,2022-052AK,2026-06-14T08:29:00.871584,15.08827356,.00012311,53.1605,195.1097,84.1144,275.9988,0,U,52631,999,22559,-.3662573E-4,-.871E-5,0
STARLINK-3995,2022-052AL,2026-06-14T08:43:27.277824,15.08874508,.00011294,53.1598,195.0555,76.4858,283.6260,0,U,52632,999,22559,.28522126E-3,.4259E-4,0
STARLINK-3994,2022-052AM,2026-06-14T19:19:25.119840,15.08833842,.0001275,53.1591,193.0698,89.4788,270.6350,0,U,52633,999,22566,.41398E-4,.371E-5,0
STARLINK-3974,2022-052AN,2026-06-14T08:32:55.026816,15.08833917,.00011967,53.1603,195.1163,85.9312,274.1816,0,U,52634,999,22558,.22323077E-4,.67E-6,0
STARLINK-3978,2022-052AP,2026-06-14T18:54:14.423616,15.08837007,.000115,53.1607,183.1477,90.0402,270.0721,0,U,52635,999,22579,.25181E-4,.113E-5,0
STARLINK-3967,2022-052AQ,2026-06-14T19:30:00.851040,15.08833642,.0001518,53.1595,193.0381,69.1450,290.9704,0,U,52636,999,22565,.21816E-4,.59E-6,0
STARLINK-3961,2022-052AR,2026-06-14T18:48:56.525184,15.08837223,.0001249,53.1603,183.1665,83.9787,276.1346,0,U,52637,999,22659,.10206E-4,-.126E-5,0
STARLINK-3941,2022-052AS,2026-06-14T19:24:42.878304,15.08836082,.0001161,53.1597,193.0530,88.4821,271.6303,0,U,52638,999,22646,.24866E-4,.108E-5,0
STARLINK-3968,2022-052AT,2026-06-14T18:33:02.854080,15.08835386,.0001101,53.1588,183.2156,72.7953,287.3159,0,U,52639,999,22659,.33201E-4,.24E-5,0
STARLINK-3977,2022-052AU,2026-06-14T07:51:50.854752,15.08843785,.00013985,53.1610,185.2434,90.3792,269.7360,0,U,52640,999,22571,-.18519867E-3,-.3235E-4,0
STARLINK-3991,2022-052AV,2026-06-14T18:55:39.563040,15.08834023,.0001274,53.1602,183.3474,84.1250,275.9887,0,U,52641,999,22579,.10366E-4,-.123E-5,0
STARLINK-3971,2022-052AW,2026-06-14T18:43:38.792640,15.08835247,.0001199,53.1595,183.1822,92.3600,267.7529,0,U,52642,999,22578,.94317E-5,-.138E-5,0
STARLINK-3963,2022-052AX,2026-06-14T08:35:37.037184,15.08830019,.00011368,53.1588,185.0517,83.6457,276.4663,0,U,52643,999,22572,.20527077E-4,.39E-6,0
STARLINK-3985,2022-052AY,2026-06-14T18:38:21.016896,15.08825808,.0001121,53.1598,183.1990,83.6446,276.4673,0,U,52644,999,22578,.56586E-4,.612E-5,0
