STARLINK-4002           
1 52612U 22052Q   26165.81527553  .00000044  00000+0  20862-4 0  9992
2 52612  53.1591 203.0260 0001275  87.4818 272.6319 15.08830883225526
STARLINK-3982           
1 52614U 22052S   26165.19353138  .00086619  00000+0  13184-2 0  9990
2 52614  53.2065 128.0386 0001283   2.2647 357.8371 15.53811570226521
STARLINK-4011           
1 52615U 22052T   26165.84977147  .00000046  00000+0  20966-4 0  9993
2 52615  53.1592 207.8701 0001217  87.6493 272.4638 15.08834877225449
STARLINK-3996           
1 52617U 22052V   26165.38931557 -.00000337  00000+0 -30554-5 0  9999
2 52617  53.1581 194.9389 0001233  74.5687 285.5440 15.08829122225583
STARLINK-3983           
1 52618U 22052W   26165.79043235  .00000576  00000+0  54314-4 0  9994
2 52618  53.1584 193.1373 0001112  82.4408 277.6709 15.08832799225647
STARLINK-3741           
1 52619U 22052X   26165.78306137  .00001173  00000+0  91789-4 0  9998
2 52619  53.1582 193.1596 0001120  81.2218 278.8900 15.08839993225647
STARLINK-3975           
1 52620U 22052Y   26165.84609265 -.00000603  00000+0 -19770-4 0  9994
2 52620  53.1591 207.8860 0001201  76.3571 283.7554 15.08839176225444
STARLINK-3984           
1 52621U 22052Z   26165.37828249  .00000786  00000+0  67502-4 0  9994
2 52621  53.1593 194.9899 0001464  74.3029 285.8124 15.08838223225585
STARLINK-4008           
1 52622U 22052AA  26165.80929052 -.00000265  00000+0  14104-5 0  9991
2 52622  53.1594 208.0517 0001181  82.6276 277.4850 15.08831435225449
STARLINK-3986           
1 52623U 22052AB  26165.77203106 -.00000343  00000+0 -34742-5 0  9991
2 52623  53.1599 193.2194 0001215  80.5682 279.5446 15.08831508225644
STARLINK-3988           
1 52625U 22052AD  26165.76835027 -.00000119  00000+0  10637-4 0  9991
2 52625  53.1598 193.2351 0001237  85.9210 274.1923 15.08831420225644
STARLINK-3990           
1 52626U 22052AE  26165.77939339 -.00000232  00000+0  35260-5 0  9990
2 52626  53.1595 193.1865 0001175  79.9185 280.1939 15.08830999225640
STARLINK-3992           
1 52627U 22052AF  26165.35986686  .00000051  00000+0  21304-4 0  9993
2 52627  53.1603 195.0717 0001260  85.9317 274.1818 15.08836312225595
STARLINK-4001           
1 52628U 22052AG  26165.80561005  .00000227  00000+0  32389-4 0  9998
2 52628  53.1598 208.0687 0001246  85.1959 274.9175 15.08832357225441
STARLINK-4022           
1 52629U 22052AH  26165.35250556 -.00000303  00000+0 -92942-6 0  9995
2 52629  53.1604 195.0659 0001232  84.2556 275.8576 15.08833716225582
STARLINK-3989           
1 52630U 22052AJ  26165.76467397 -.00000254  00000+0  21242-5 0  9993
2 52630  53.1594 193.2529 0001131  83.1763 276.9357 15.08830138225645
STARLINK-3794           
1 52631U 22052AK  26165.35348231 -.00000871  00000+0 -36626-4 0  9991
2 52631  53.1605 195.1097 0001231  84.1144 275.9988 15.08827356225596
STARLINK-3995           
1 52632U 22052AL  26165.36351016  .00004259  00000+0  28522-3 0  9995
2 52632  53.1598 195.0555 0001129  76.4858 283.6260 15.08874508225598
STARLINK-3994           
1 52633U 22052AM  26165.80515185  .00000371  00000+0  41398-4 0  9992
2 52633  53.1591 193.0698 0001275  89.4788 270.6350 15.08833842225666
STARLINK-3974           
1 52634U 22052AN  26165.35619244  .00000067  00000+0  22323-4 0  9993
2 52634  53.1603 195.1163 0001196  85.9312 274.1816 15.08833917225587
STARLINK-3978           
1 52635U 22052AP  26165.78766694  .00000113  00000+0  25181-4 0  9990
2 52635  53.1607 183.1477 0001150  90.0402 270.0721 15.08837007225791
STARLINK-3967           
1 52636U 22052AQ  26165.81250985  .00000059  00000+0  21816-4 0  9996
2 52636  53.1595 193.0381 0001518  69.1450 290.9704 15.08833642225658
STARLINK-3961           
1 52637U 22052AR  26165.78398756 -.00000126  00000+0  10206-4 0  9999
2 52637  53.1603 183.1665 0001249  83.9787 276.1346 15.08837223226593
STARLINK-3941           
1 52638U 22052AS  26165.80882961  .00000108  00000+0  24866-4 0  9995
2 52638  53.1597 193.0530 0001161  88.4821 271.6303 15.08836082226460
STARLINK-3968           
1 52639U 22052AT  26165.77294970  .00000240  00000+0  33201-4 0  9999
2 52639  53.1588 183.2156 0001101  72.7953 287.3159 15.08835386226595
STARLINK-3977           
1 52640U 22052AU  26165.32767193 -.00003235  00000+0 -18520-3 0  9999
2 52640  53.1610 185.2434 0001398  90.3792 269.7360 15.08843785225712
STARLINK-3991           
1 52641U 22052AV  26165.78865235 -.00000123  00000+0  10366-4 0  9999
2 52641  53.1602 183.3474 0001274  84.1250 275.9887 15.08834023225796
STARLINK-3971           
1 52642U 22052AW  26165.78031010 -.00000138  00000+0  94317-5 0  9991
2 52642  53.1595 183.1822 0001199  92.3600 267.7529 15.08835247225789
STARLINK-3963           
1 52643U 22052AX  26165.35806756  .00000039  00000+0  20527-4 0  9992
2 52643  53.1588 185.0517 0001136  83.6457 276.4663 15.08830019225720
STARLINK-3985           
1 52644U 22052AY  26165.77663214  .00000612  00000+0  56586-4 0  9990
2 52644  53.1598 183.1990 0001121  83.6446 276.4673 15.08825808225785
